{
  "links" : {
    "next" : "https://api.nasa.gov/neo/rest/v1/feed?start_date=2007-12-09&end_date=2007-12-09&detailed=true&api_key=t0TVs3DtDT2H8Oy2Zy8m2eVrNsAVKAexjcZXUckd",
    "prev" : "https://api.nasa.gov/neo/rest/v1/feed?start_date=2007-12-07&end_date=2007-12-07&detailed=true&api_key=t0TVs3DtDT2H8Oy2Zy8m2eVrNsAVKAexjcZXUckd",
    "self" : "https://api.nasa.gov/neo/rest/v1/feed?start_date=2007-12-08&end_date=2007-12-08&detailed=true&api_key=t0TVs3DtDT2H8Oy2Zy8m2eVrNsAVKAexjcZXUckd"
  },
  "element_count" : 7,
  "near_earth_objects" : {
    "2007-12-08" : [ {
      "links" : {
        "self" : "https://api.nasa.gov/neo/rest/v1/neo/3605760?api_key=t0TVs3DtDT2H8Oy2Zy8m2eVrNsAVKAexjcZXUckd"
      },
      "neo_reference_id" : "3605760",
      "name" : "(2012 LF11)",
      "nasa_jpl_url" : "http://ssd.jpl.nasa.gov/sbdb.cgi?sstr=3605760",
      "absolute_magnitude_h" : 20.8,
      "estimated_diameter" : {
        "kilometers" : {
          "estimated_diameter_min" : 0.1838886721,
          "estimated_diameter_max" : 0.411187571
        },
        "meters" : {
          "estimated_diameter_min" : 183.8886720703,
          "estimated_diameter_max" : 411.1875710413
        },
        "miles" : {
          "estimated_diameter_min" : 0.1142630881,
          "estimated_diameter_max" : 0.2555000322
        },
        "feet" : {
          "estimated_diameter_min" : 603.309310875,
          "estimated_diameter_max" : 1349.040630575
        }
      },
      "is_potentially_hazardous_asteroid" : false,
      "close_approach_data" : [ {
        "close_approach_date" : "2007-12-08",
        "epoch_date_close_approach" : 1197100800000,
        "relative_velocity" : {
          "kilometers_per_second" : "17.3944780796",
          "kilometers_per_hour" : "62620.121086686",
          "miles_per_hour" : "38909.7080163355"
        },
        "miss_distance" : {
          "astronomical" : "0.4628915939",
          "lunar" : "180.0648345947",
          "kilometers" : "69247600",
          "miles" : "43028464"
        },
        "orbiting_body" : "Earth"
      } ],
      "orbital_data" : {
        "orbit_id" : "30",
        "orbit_determination_date" : "2017-04-06 08:49:34",
        "orbit_uncertainty" : "2",
        "minimum_orbit_intersection" : ".110815",
        "jupiter_tisserand_invariant" : "6.512",
        "epoch_osculation" : "2458000.5",
        "eccentricity" : ".4831761962100073",
        "semi_major_axis" : ".8972141839833276",
        "inclination" : "11.64738259884765",
        "ascending_node_longitude" : "222.2225909226548",
        "orbital_period" : "310.4149454332835",
        "perihelion_distance" : ".4637016473805977",
        "perihelion_argument" : "263.5353328524871",
        "aphelion_distance" : "1.330726720586057",
        "perihelion_time" : "2457877.332671436747",
        "mean_anomaly" : "142.8418281242225",
        "mean_motion" : "1.159737974270229",
        "equinox" : "J2000"
      }
    }, {
      "links" : {
        "self" : "https://api.nasa.gov/neo/rest/v1/neo/3644044?api_key=t0TVs3DtDT2H8Oy2Zy8m2eVrNsAVKAexjcZXUckd"
      },
      "neo_reference_id" : "3644044",
      "name" : "(2013 LL31)",
      "nasa_jpl_url" : "http://ssd.jpl.nasa.gov/sbdb.cgi?sstr=3644044",
      "absolute_magnitude_h" : 20.3,
      "estimated_diameter" : {
        "kilometers" : {
          "estimated_diameter_min" : 0.2315021222,
          "estimated_diameter_max" : 0.5176544822
        },
        "meters" : {
          "estimated_diameter_min" : 231.5021222103,
          "estimated_diameter_max" : 517.6544821978
        },
        "miles" : {
          "estimated_diameter_min" : 0.1438487052,
          "estimated_diameter_max" : 0.3216554833
        },
        "feet" : {
          "estimated_diameter_min" : 759.5214226325,
          "estimated_diameter_max" : 1698.3415313737
        }
      },
      "is_potentially_hazardous_asteroid" : false,
      "close_approach_data" : [ {
        "close_approach_date" : "2007-12-08",
        "epoch_date_close_approach" : 1197100800000,
        "relative_velocity" : {
          "kilometers_per_second" : "7.8802710851",
          "kilometers_per_hour" : "28368.9759065177",
          "miles_per_hour" : "17627.3783903582"
        },
        "miss_distance" : {
          "astronomical" : "0.3618587229",
          "lunar" : "140.7630462646",
          "kilometers" : "54133296",
          "miles" : "33636872"
        },
        "orbiting_body" : "Earth"
      } ],
      "orbital_data" : {
        "orbit_id" : "46",
        "orbit_determination_date" : "2017-04-06 08:45:35",
        "orbit_uncertainty" : "0",
        "minimum_orbit_intersection" : ".286413",
        "jupiter_tisserand_invariant" : "4.755",
        "epoch_osculation" : "2458000.5",
        "eccentricity" : ".1504648675888001",
        "semi_major_axis" : "1.374021943828348",
        "inclination" : "17.73108120598954",
        "ascending_node_longitude" : "208.1314007525745",
        "orbital_period" : "588.2865644542701",
        "perihelion_distance" : "1.16727991398611",
        "perihelion_argument" : "276.3959254408697",
        "aphelion_distance" : "1.580763973670586",
        "perihelion_time" : "2458024.627481734802",
        "mean_anomaly" : "345.2352680660211",
        "mean_motion" : ".6119466629906083",
        "equinox" : "J2000"
      }
    }, {
      "links" : {
        "self" : "https://api.nasa.gov/neo/rest/v1/neo/3719081?api_key=t0TVs3DtDT2H8Oy2Zy8m2eVrNsAVKAexjcZXUckd"
      },
      "neo_reference_id" : "3719081",
      "name" : "(2015 HB177)",
      "nasa_jpl_url" : "http://ssd.jpl.nasa.gov/sbdb.cgi?sstr=3719081",
      "absolute_magnitude_h" : 24.6,
      "estimated_diameter" : {
        "kilometers" : {
          "estimated_diameter_min" : 0.0319561887,
          "estimated_diameter_max" : 0.0714562102
        },
        "meters" : {
          "estimated_diameter_min" : 31.9561886721,
          "estimated_diameter_max" : 71.4562101727
        },
        "miles" : {
          "estimated_diameter_min" : 0.0198566489,
          "estimated_diameter_max" : 0.0444008168
        },
        "feet" : {
          "estimated_diameter_min" : 104.8431420431,
          "estimated_diameter_max" : 234.436392583
        }
      },
      "is_potentially_hazardous_asteroid" : false,
      "close_approach_data" : [ {
        "close_approach_date" : "2007-12-08",
        "epoch_date_close_approach" : 1197100800000,
        "relative_velocity" : {
          "kilometers_per_second" : "12.8481474419",
          "kilometers_per_hour" : "46253.3307907525",
          "miles_per_hour" : "28740.0210127318"
        },
        "miss_distance" : {
          "astronomical" : "0.0601884357",
          "lunar" : "23.4133014679",
          "kilometers" : "9004062",
          "miles" : "5594864.5"
        },
        "orbiting_body" : "Earth"
      } ],
      "orbital_data" : {
        "orbit_id" : "10",
        "orbit_determination_date" : "2017-04-06 08:33:59",
        "orbit_uncertainty" : "7",
        "minimum_orbit_intersection" : ".0276434",
        "jupiter_tisserand_invariant" : "5.695",
        "epoch_osculation" : "2458000.5",
        "eccentricity" : ".3589941719288532",
        "semi_major_axis" : "1.073380394001915",
        "inclination" : "1.62113695168583",
        "ascending_node_longitude" : "158.7964135454144",
        "orbital_period" : "406.1897073473576",
        "perihelion_distance" : ".6880430882925312",
        "perihelion_argument" : "177.2626368624121",
        "aphelion_distance" : "1.458717699711298",
        "perihelion_time" : "2458037.409175511589",
        "mean_anomaly" : "327.2879372770287",
        "mean_motion" : ".886285382145693",
        "equinox" : "J2000"
      }
    } ]
  }
}